start=new Date('2022-08-15T00:00:00.000Z').valueOf();
sats=[{"EPHEMERIS_TYPE":"0","MEAN_MOTION":"15.06392901","DECAY_DATE":null,"SITE":"AFETR","OBJECT_TYPE":"PAYLOAD","OBJECT_NAME":"STARLINK-2559","MEAN_MOTION_DOT":"-0.00000733","MEAN_ELEMENT_THEORY":"SGP4","TLE_LINE2":"2 48298  53.0546 170.1292 0001627  77.1360 282.9811 15.06392901 71957","PERIAPSIS":"546.109","ARG_OF_PERICENTER":"77.1360","FILE":"3536615","RA_OF_ASC_NODE":"170.1292","CLASSIFICATION_TYPE":"U","LAUNCH_DATE":"2021-04-29","RCS_SIZE":"LARGE","TIME_SYSTEM":"UTC","NORAD_CAT_ID":"48298","CENTER_NAME":"EARTH","INCLINATION":"53.0546","SEMIMAJOR_AXIS":"6925.370","ELEMENT_SET_NO":"999","BSTAR":"-0.00003033000000","MEAN_MOTION_DDOT":"0.0000000000000","ECCENTRICITY":"0.00016270","COUNTRY_CODE":"US","GP_ID":"210231688","APOAPSIS":"548.362","REV_AT_EPOCH":"7195","EPOCH":"2022-08-14T21:18:47.463840","MEAN_ANOMALY":"282.9811","TLE_LINE1":"1 48298U 21036Y   22226.88804935 -.00000733  00000-0 -30330-4 0  9990","REF_FRAME":"TEME","OBJECT_ID":"2021-036Y","PERIOD":"95.593"},{"REF_FRAME":"TEME","PERIOD":"95.592","OBJECT_ID":"2021-036Z","TLE_LINE1":"1 48299U 21036Z   22226.81800688  .00000358  00000-0  42922-4 0  9996","APOAPSIS":"548.423","REV_AT_EPOCH":"7194","MEAN_ANOMALY":"292.5853","EPOCH":"2022-08-14T19:37:55.794432","COUNTRY_CODE":"US","ECCENTRICITY":"0.00017540","GP_ID":"210231937","MEAN_MOTION_DDOT":"0.0000000000000","BSTAR":"0.00004292200000","INCLINATION":"53.0540","CENTER_NAME":"EARTH","ELEMENT_SET_NO":"999","SEMIMAJOR_AXIS":"6925.344","NORAD_CAT_ID":"48299","TIME_SYSTEM":"UTC","CLASSIFICATION_TYPE":"U","ARG_OF_PERICENTER":"67.5322","FILE":"3536615","RA_OF_ASC_NODE":"170.4322","LAUNCH_DATE":"2021-04-29","RCS_SIZE":"MEDIUM","TLE_LINE2":"2 48299  53.0540 170.4322 0001754  67.5322 292.5853 15.06401600 71940","MEAN_ELEMENT_THEORY":"SGP4","MEAN_MOTION_DOT":"0.00000358","OBJECT_NAME":"STARLINK-2557","PERIAPSIS":"545.994","SITE":"AFETR","OBJECT_TYPE":"PAYLOAD","DECAY_DATE":null,"MEAN_MOTION":"15.06401600","EPHEMERIS_TYPE":"0"},{"MEAN_MOTION_DDOT":"0.0000000000000","BSTAR":"0.00010927000000","CENTER_NAME":"EARTH","INCLINATION":"53.0528","ELEMENT_SET_NO":"999","SEMIMAJOR_AXIS":"6925.359","NORAD_CAT_ID":"48300","REF_FRAME":"TEME","PERIOD":"95.592","OBJECT_ID":"2021-036AA","TLE_LINE1":"1 48300U 21036AA  22226.27894722  .00001346  00000-0  10927-3 0  9998","REV_AT_EPOCH":"7172","APOAPSIS":"548.453","MEAN_ANOMALY":"289.5157","EPOCH":"2022-08-14T06:41:41.039808","COUNTRY_CODE":"US","ECCENTRICITY":"0.00017740","GP_ID":"210200049","OBJECT_TYPE":"PAYLOAD","SITE":"AFETR","DECAY_DATE":null,"MEAN_MOTION":"15.06396509","EPHEMERIS_TYPE":"0","TIME_SYSTEM":"UTC","CLASSIFICATION_TYPE":"U","FILE":"3536350","RA_OF_ASC_NODE":"182.8516","ARG_OF_PERICENTER":"70.6024","LAUNCH_DATE":"2021-04-29","RCS_SIZE":"LARGE","MEAN_ELEMENT_THEORY":"SGP4","TLE_LINE2":"2 48300  53.0528 182.8516 0001774  70.6024 289.5157 15.06396509 71727","OBJECT_NAME":"STARLINK-2538","MEAN_MOTION_DOT":"0.00001346","PERIAPSIS":"545.996"},{"ECCENTRICITY":"0.00015590","COUNTRY_CODE":"US","GP_ID":"210200299","REV_AT_EPOCH":"7171","APOAPSIS":"548.302","EPOCH":"2022-08-14T06:36:22.985856","MEAN_ANOMALY":"284.2101","TLE_LINE1":"1 48301U 21036AB  22226.27526604  .00000748  00000-0  69115-4 0  9999","REF_FRAME":"TEME","OBJECT_ID":"2021-036AB","PERIOD":"95.592","NORAD_CAT_ID":"48301","CENTER_NAME":"EARTH","INCLINATION":"53.0544","SEMIMAJOR_AXIS":"6925.357","ELEMENT_SET_NO":"999","BSTAR":"0.00006911500000","MEAN_MOTION_DDOT":"0.0000000000000","MEAN_MOTION_DOT":"0.00000748","OBJECT_NAME":"STARLINK-2537","MEAN_ELEMENT_THEORY":"SGP4","TLE_LINE2":"2 48301  53.0544 182.8799 0001559  75.9061 284.2101 15.06397172 71716","PERIAPSIS":"546.143","ARG_OF_PERICENTER":"75.9061","FILE":"3536350","RA_OF_ASC_NODE":"182.8799","CLASSIFICATION_TYPE":"U","LAUNCH_DATE":"2021-04-29","RCS_SIZE":"LARGE","TIME_SYSTEM":"UTC","EPHEMERIS_TYPE":"0","MEAN_MOTION":"15.06397172","DECAY_DATE":null,"OBJECT_TYPE":"PAYLOAD","SITE":"AFETR"},{"CENTER_NAME":"EARTH","INCLINATION":"53.0536","SEMIMAJOR_AXIS":"6925.327","ELEMENT_SET_NO":"999","NORAD_CAT_ID":"48302","MEAN_MOTION_DDOT":"0.0000000000000","BSTAR":"0.00006340000000","APOAPSIS":"548.399","REV_AT_EPOCH":"7180","EPOCH":"2022-08-14T20:50:55.497696","MEAN_ANOMALY":"290.7989","ECCENTRICITY":"0.00017430","COUNTRY_CODE":"US","GP_ID":"210231188","REF_FRAME":"TEME","OBJECT_ID":"2021-036AC","PERIOD":"95.592","TLE_LINE1":"1 48302U 21036AC  22226.86869789  .00000663  00000-0  63400-4 0  9996","EPHEMERIS_TYPE":"0","MEAN_MOTION":"15.06407187","DECAY_DATE":null,"OBJECT_TYPE":"PAYLOAD","SITE":"AFETR","OBJECT_NAME":"STARLINK-2556","MEAN_MOTION_DOT":"0.00000663","MEAN_ELEMENT_THEORY":"SGP4","TLE_LINE2":"2 48302  53.0536 180.2038 0001743  69.3186 290.7989 15.06407187 71800","PERIAPSIS":"545.984","TIME_SYSTEM":"UTC","FILE":"3536615","RA_OF_ASC_NODE":"180.2038","ARG_OF_PERICENTER":"69.3186","CLASSIFICATION_TYPE":"U","LAUNCH_DATE":"2021-04-29","RCS_SIZE":"LARGE"},{"RCS_SIZE":"LARGE","LAUNCH_DATE":"2021-04-29","FILE":"3536350","ARG_OF_PERICENTER":"70.7579","RA_OF_ASC_NODE":"182.9050","CLASSIFICATION_TYPE":"U","TIME_SYSTEM":"UTC","PERIAPSIS":"546.079","MEAN_MOTION_DOT":"-0.00000661","OBJECT_NAME":"STARLINK-2530","MEAN_ELEMENT_THEORY":"SGP4","TLE_LINE2":"2 48303  53.0550 182.9050 0001661  70.7579 289.3589 15.06394743 71714","OBJECT_TYPE":"PAYLOAD","SITE":"AFETR","EPHEMERIS_TYPE":"0","DECAY_DATE":null,"MEAN_MOTION":"15.06394743","TLE_LINE1":"1 48303U 21036AD  22226.26694333 -.00000661  00000-0 -25461-4 0  9997","OBJECT_ID":"2021-036AD","PERIOD":"95.592","REF_FRAME":"TEME","GP_ID":"210200802","ECCENTRICITY":"0.00016610","COUNTRY_CODE":"US","EPOCH":"2022-08-14T06:24:23.903712","MEAN_ANOMALY":"289.3589","REV_AT_EPOCH":"7171","APOAPSIS":"548.380","BSTAR":"-0.00002546100000","MEAN_MOTION_DDOT":"0.0000000000000","NORAD_CAT_ID":"48303","SEMIMAJOR_AXIS":"6925.365","ELEMENT_SET_NO":"999","INCLINATION":"53.0550","CENTER_NAME":"EARTH"},{"NORAD_CAT_ID":"48304","SEMIMAJOR_AXIS":"6925.315","ELEMENT_SET_NO":"999","CENTER_NAME":"EARTH","INCLINATION":"53.0535","BSTAR":"-0.00016607000000","MEAN_MOTION_DDOT":"0.0000000000000","GP_ID":"210232688","ECCENTRICITY":"0.00016880","COUNTRY_CODE":"US","EPOCH":"2022-08-14T20:40:18.156000","MEAN_ANOMALY":"293.0430","REV_AT_EPOCH":"7180","APOAPSIS":"548.349","TLE_LINE1":"1 48304U 21036AE  22226.86132125 -.00002755  00000-0 -16607-3 0  9997","OBJECT_ID":"2021-036AE","PERIOD":"95.591","REF_FRAME":"TEME","EPHEMERIS_TYPE":"0","DECAY_DATE":null,"MEAN_MOTION":"15.06411057","SITE":"AFETR","OBJECT_TYPE":"PAYLOAD","PERIAPSIS":"546.011","OBJECT_NAME":"STARLINK-2524","MEAN_MOTION_DOT":"-0.00002755","TLE_LINE2":"2 48304  53.0535 180.2426 0001688  67.0737 293.0430 15.06411057 71805","MEAN_ELEMENT_THEORY":"SGP4","RCS_SIZE":"LARGE","LAUNCH_DATE":"2021-04-29","FILE":"3536615","ARG_OF_PERICENTER":"67.0737","RA_OF_ASC_NODE":"180.2426","CLASSIFICATION_TYPE":"U","TIME_SYSTEM":"UTC"},{"EPOCH":"2022-08-14T06:13:47.406144","MEAN_ANOMALY":"292.8370","REV_AT_EPOCH":"7171","APOAPSIS":"548.443","GP_ID":"210199800","ECCENTRICITY":"0.00017280","COUNTRY_CODE":"US","OBJECT_ID":"2021-036AF","PERIOD":"95.593","REF_FRAME":"TEME","TLE_LINE1":"1 48305U 21036AF  22226.25957646 -.00001990  00000-0 -11475-3 0  9992","SEMIMAJOR_AXIS":"6925.381","ELEMENT_SET_NO":"999","CENTER_NAME":"EARTH","INCLINATION":"53.0547","NORAD_CAT_ID":"48305","MEAN_MOTION_DDOT":"0.0000000000000","BSTAR":"-0.00011475000000","PERIAPSIS":"546.050","MEAN_MOTION_DOT":"-0.00001990","OBJECT_NAME":"STARLINK-2519","TLE_LINE2":"2 48305  53.0547 182.9453 0001728  67.2801 292.8370 15.06389345 71711","MEAN_ELEMENT_THEORY":"SGP4","TIME_SYSTEM":"UTC","RCS_SIZE":"LARGE","LAUNCH_DATE":"2021-04-29","ARG_OF_PERICENTER":"67.2801","FILE":"3536350","RA_OF_ASC_NODE":"182.9453","CLASSIFICATION_TYPE":"U","EPHEMERIS_TYPE":"0","DECAY_DATE":null,"MEAN_MOTION":"15.06389345","OBJECT_TYPE":"PAYLOAD","SITE":"AFETR"},{"TLE_LINE1":"1 48306U 21036AG  22226.38952213 -.00001542  00000-0 -84635-4 0  9994","REF_FRAME":"TEME","PERIOD":"95.593","OBJECT_ID":"2021-036AG","COUNTRY_CODE":"US","ECCENTRICITY":"0.00017570","GP_ID":"210201051","APOAPSIS":"548.455","REV_AT_EPOCH":"7173","MEAN_ANOMALY":"295.5573","EPOCH":"2022-08-14T09:20:54.712032","BSTAR":"-0.00008463500000","MEAN_MOTION_DDOT":"0.0000000000000","NORAD_CAT_ID":"48306","INCLINATION":"53.0534","CENTER_NAME":"EARTH","ELEMENT_SET_NO":"999","SEMIMAJOR_AXIS":"6925.373","CLASSIFICATION_TYPE":"U","RA_OF_ASC_NODE":"182.3631","FILE":"3536350","ARG_OF_PERICENTER":"64.5598","LAUNCH_DATE":"2021-04-29","RCS_SIZE":"LARGE","TIME_SYSTEM":"UTC","TLE_LINE2":"2 48306  53.0534 182.3631 0001757  64.5598 295.5573 15.06392093 71736","MEAN_ELEMENT_THEORY":"SGP4","OBJECT_NAME":"STARLINK-2523","MEAN_MOTION_DOT":"-0.00001542","PERIAPSIS":"546.021","OBJECT_TYPE":"PAYLOAD","SITE":"AFETR","MEAN_MOTION":"15.06392093","DECAY_DATE":null,"EPHEMERIS_TYPE":"0"},{"SITE":"AFETR","OBJECT_TYPE":"PAYLOAD","MEAN_MOTION":"15.06398976","DECAY_DATE":null,"EPHEMERIS_TYPE":"0","CLASSIFICATION_TYPE":"U","FILE":"3536350","RA_OF_ASC_NODE":"182.9833","ARG_OF_PERICENTER":"74.6321","LAUNCH_DATE":"2021-04-29","RCS_SIZE":"LARGE","TIME_SYSTEM":"UTC","MEAN_ELEMENT_THEORY":"SGP4","TLE_LINE2":"2 48307  53.0542 182.9833 0001477  74.6321 285.4831 15.06398976 71710","MEAN_MOTION_DOT":"0.00001486","OBJECT_NAME":"STARLINK-2528","PERIAPSIS":"546.194","BSTAR":"0.00011862000000","MEAN_MOTION_DDOT":"0.0000000000000","NORAD_CAT_ID":"48307","CENTER_NAME":"EARTH","INCLINATION":"53.0542","ELEMENT_SET_NO":"999","SEMIMAJOR_AXIS":"6925.352","TLE_LINE1":"1 48307U 21036AH  22226.25314036  .00001486  00000-0  11862-3 0  9992","REF_FRAME":"TEME","PERIOD":"95.592","OBJECT_ID":"2021-036AH","COUNTRY_CODE":"US","ECCENTRICITY":"0.00014770","GP_ID":"210201302","REV_AT_EPOCH":"7171","APOAPSIS":"548.240","MEAN_ANOMALY":"285.4831","EPOCH":"2022-08-14T06:04:31.327104"}];
